#cP2017  6 24  0  0  0.00000000      96 ORBIT IGS14 HLM  IGS
## 1954 518400.00000000   900.00000000 57928 0.0000000000000
+   32   G01G02G03G04G05G06G07G08G09G10G11G12G13G14G15G16G17
+        G18G19G20G21G22G23G24G25G26G27G28G29G30G31G32  0  0
+          0  0  0  0  0  0  0  0  0  0  0  0  0  0  0  0  0
+          0  0  0  0  0  0  0  0  0  0  0  0  0  0  0  0  0
+          0  0  0  0  0  0  0  0  0  0  0  0  0  0  0  0  0
++         2  2  2  0  2  2  2  2  2  2  2  2  2  2  2  2  2
++         2  2  2  2  2  2  2  2  2  2  2  3  2  2  2  0  0
++         0  0  0  0  0  0  0  0  0  0  0  0  0  0  0  0  0
++         0  0  0  0  0  0  0  0  0  0  0  0  0  0  0  0  0
++         0  0  0  0  0  0  0  0  0  0  0  0  0  0  0  0  0
%c G  cc GPS ccc cccc cccc cccc cccc ccccc ccccc ccccc ccccc
%c cc cc ccc ccc cccc cccc cccc cccc ccccc ccccc ccccc ccccc
%f  1.2500000  1.025000000  0.00000000000  0.000000000000000
%f  0.0000000  0.000000000  0.00000000000  0.000000000000000
%i    0    0    0    0      0      0      0      0         0
%i    0    0    0    0      0      0      0      0         0
/* RAPID ORBIT COMBINATION FROM WEIGHTED AVERAGE OF:        
/* cod emr esa gfz jpl ngs sio usn whu                      
/* REFERENCED TO IGS TIME (IGST) AND TO WEIGHTED MEAN POLE: 
/* PCV:IGS14_1930 OL/AL:FES2004  NONE     Y  ORB:CMB CLK:CMB
*  2017  6 24 20 15  0.00000000
PG01  17343.037225   4734.781886  19525.399511     56.215217  7  3  5 122       
PG02 -15318.300126 -21466.941638  -3858.177330    391.415610  5  8  5 104       
PG03  19042.803625  -7256.549276  17012.659723    -92.492401  7  2  7 111       
PG04   9140.118798  25248.316627  -1092.113135 999999.999999
PG05  -9612.226921 -13144.475652 -21035.235334    -40.062247  7  6  4 114       
PG06  -4643.088264 -24214.660491   9874.032247    368.773732  5  5  7 119       
PG07  11422.951184 -10524.783599 -21311.419323    335.933422  7  6  6 119       
PG08  24848.847764   6164.162457  -7211.469661    -64.243517  2  2  5 113       
PG09  21001.691899  -8763.086469 -13726.072379    391.784215  4  6  5  77       
PG10  -9280.082771  23704.429724   7395.723539    -14.516099  5  7  6 101       
PG11  22436.396015   6845.208292  11827.285213   -697.658053  5  7  6  91       
PG12 -17332.976069   1422.363291  19847.795233    380.584648  7  8     41       
PG13 -19968.854116 -12268.560777 -12567.114093    -86.029432  8 10  5 110       
PG14   4371.897258  15611.705771  21344.086171    -75.489063  8  7  7 107       
PG15 -26484.700009  -2130.147198  -3374.152920   -352.272208 10 10  8  92       
PG16   7087.582267  13952.834090 -21519.789212     35.264901  5 10  7 123       
PG17   6044.372027 -14173.113594  21974.651103   -172.967466  6  6  4 127       
PG18 -14419.719324  22073.518403  -1530.507831    621.284273  6  9  9 128       
PG19  -2751.445917 -15032.752186  21410.293971   -498.394524  8  6  3 127       
PG20 -17916.275456   2474.430258 -19592.494361    477.331710  7  5  8  99       
PG21  -6932.791225  16200.828946 -19061.259045   -498.788370  8  7  7 100       
PG22  16773.850090   2407.760443  20710.378338    -33.264364  9  6  5  94       
PG23  26451.012993  -1455.070994  -3796.812828   -214.087542  8  7  4 108       
PG24 -18448.966482  -6974.962382  17812.757909    -36.626453  6  9  7 110       
PG25 -18842.213108  14544.313462  11403.891008   -410.460796  5  7  8  89       
PG26   -413.352845  21295.921059 -15818.574800   -485.677743  4  4  6 128       
PG27  16741.958836  12268.876113 -16754.787802    281.794507  6  6  7 117       
PG28  13039.827879 -22613.216441   5525.904153    623.655338  8  8  6 140       
PG29 -23198.331442   5248.313042 -11801.854710    591.916908  5  5  8  93       
PG30   3004.366078 -21251.572877 -15555.401006    152.799647  6  2  8 133       
PG31   5432.614847  24589.393617   7854.920434    192.586319  7  8  6 100       
PG32  -3773.446725  15022.299210  21596.735569   -448.077390  6  6  2 133       
*  2017  6 24 20 30  0.00000000
PG01  18272.293555   6691.695997  18084.459998     56.215597  7  4  6 129       
PG02 -15260.339082 -21894.016985  -1066.540336    391.407850  6  7  5 110       
PG03  18104.900110  -5436.536240  18640.716761    -92.489984  7  3  7 104       
PG04   9011.551870  25295.174297   1777.401585 999999.999999
PG05  -8339.595600 -15123.870594 -20210.662337    -40.060697  7  8  3 107       
PG06  -3855.216887 -23200.442279  12345.623928    368.778298  4  5  6 113       
PG07  12614.276005  -8326.670491 -21645.796065    335.929158  7  7  6 112       
PG08  23866.845445   6362.694035  -9845.999980    -64.244591  2  2  5 110       
PG09  22435.042933  -8517.854506 -11415.836021    391.791561  4  6  6  67       
PG10  -9856.469761  24159.437773   4647.674214    -14.504908  4  7  6  92       
PG11  23223.766473   7957.431005   9485.567679   -697.660235  6  7  6 104       
PG12 -16047.323619   -565.523913  20949.826548    380.583816  8  8  3  67       
PG13 -18409.306102 -12228.745586 -14811.113904    -86.029973  7  9  5 122       
PG14   1971.124793  15401.926511  21839.027901    -75.490208  9  7  7 109       
PG15 -25980.954322  -2461.314862  -6074.402861   -352.272726 10 10  8 101       
PG16   5635.208738  15843.857283 -20579.785442     35.265279  5  9  7 120       
PG17   8431.785993 -13950.703666  21296.017862   -172.965178  6  6  4 123       
PG18 -14553.697927  21543.124787  -4298.680240    621.285599  6  9  9 132       
PG19   -235.397736 -14766.987997  21786.317633   -498.393073  8  6  3 126       
PG20 -17027.267472    372.889515 -20523.441956    477.333070  7  6  8 116       
PG21  -8276.183881  14202.330002 -20062.586975   -498.786663  8  6  7 106       
PG22  15690.806064   4505.867336  21204.433697    -33.275333  9  6  5  74       
PG23  26746.025131  -1181.627128  -1017.748806   -214.088017  9  8  5 102       
PG24 -19289.321550  -8743.501206  16087.853511    -36.626794  7 10  7 108       
PG25 -18234.598304  13194.939169  13775.085261   -410.466731  5  8  8  87       
PG26  -1446.116208  22652.184016 -13727.978813   -485.672100  3  3  6 129       
PG27  14745.339561  12343.426665 -18473.674208    281.800852  6  6  7 113       
PG28  13409.591462 -22834.384869   2666.056429    623.658323  8  7  6  83       
PG29 -24381.446556   4975.116779  -9256.364766    591.913824  5  5  7  98       
PG30   3986.480235 -19621.936499 -17381.971031    152.798467  6  2  8 135       
PG31   4744.076914  23760.126570  10477.786072    192.584202  7  8  6 104       
PG32  -6210.837102  14929.420617  21086.517229   -448.085446  7  6  3 133       
*  2017  6 24 20 45  0.00000000
PG01  19209.007835   8439.555709  16332.476163     56.215994  7  5  6 121       
PG02 -15048.489766 -22061.996191   1743.201776    391.400708  6  7  6 109       
PG03  17184.430454  -3423.980146  19947.580582    -92.487569  7  3  7 104       
PG04   8759.838163  25056.750832   4617.530172 999999.999999
PG05  -7217.303243 -17065.881747 -19039.284766    -40.059217  7  8  3  87       
PG06  -2872.140126 -22002.739919  14604.792003    368.782849  4  5  7 107       
PG07  13923.998361  -6182.664526 -21600.952077    335.925379  7  7  6 111       
PG08  22608.049192   6626.603775 -12311.644839    -64.245790  2  3  5  98       
PG09  23607.149846  -8333.966576  -8909.447722    391.798882  5  6  6  93       
PG10 -10260.970491  24363.842055   1819.119900    -14.493722  4  7  6  84       
PG11  23832.891881   8871.216400   6976.017040   -697.662790  5  8  6  96       
PG12 -14820.716084  -2711.044967  21684.617722    380.583086  8  8  4  64       
PG13 -16612.280569 -12252.500491 -16801.504732    -86.030847  7  9  4 101       
PG14   -473.499767  15318.466635  21968.016193    -75.491327  8  7  7 108       
PG15 -25199.961595  -2846.205724  -8672.825676   -352.273349 10 10  7  93       
PG16   4357.136184  17710.018303 -19286.326286     35.265616  5  9  7 125       
PG17  10734.710720 -13863.108261  20261.414216   -172.963600  6  5  4 127       
PG18 -14581.369212  20735.942687  -6991.045248    621.286965  6  8  9 129       
PG19   2309.897718 -14636.006896  21777.169656   -498.391686  8  5  4 124       
PG20 -16205.696827  -1845.822624 -21105.564012    477.334418  7  6  7 103       
PG21  -9765.783516  12188.432693 -20693.268316   -498.784306  8  6  7  93       
PG22  14692.029140   6684.284483  21341.740783    -33.286833  9  7  5  86       
PG23  26742.654695   -912.572072   1778.406869   -214.088586  9  8  5 111       
PG24 -20099.597433 -10291.148717  14087.197161    -36.627851  7 10  7 111       
PG25 -17579.408311  11587.524047  15904.570733   -410.472637  6  8  7  70       
PG26  -2293.030223  23837.651805 -11400.241731   -485.666497  3  2  6 134       
PG27  12578.577912  12534.556705 -19878.410778    281.807135  6  6  6 126       
PG28  13595.100557 -22799.198581   -239.334981    623.661261  8  7  6 114       
PG29 -25279.965427   4774.303872  -6551.376295    591.910725  5  5  6  78       
PG30   5138.490763 -17877.168894 -18907.900201    152.797177  6  4  7 132       
PG31   3869.727195  22718.773609  12916.994780    192.581892  8  7  6  96       
PG32  -8572.230803  14959.319696  20213.973804   -448.093463  6  6  3 132       
EOF
